From: horizons@ssd.jpl.nasa.gov (Horizons Ephemeris System)
Subject: [Horizons] SMALL BODY #C(500@10)_T(Catalina (P/2019 Y3)) (1/1)
Date: February 4, 2021 at 3:26:32 PM PST

Automated mail xmit by PORT_LOGIN, PID= 15228 Thu Feb  4 15:26:32 2021
++++++++++++++++++++++++++++++++ (part 1 of 1)  +++++++++++++++++++++++++++++++
*******************************************************************************
Ephemeris / PORT_LOGIN Thu Feb  4 15:26:19 2021 Pasadena, USA    / Horizons
*******************************************************************************
Target body name: Catalina (P/2019 Y3)            {source: JPL#3}
Center body name: Sun (10)                        {source: DE431}
Center-site name: BODY CENTER
*******************************************************************************
Start time      : A.D. 2025-Jan-01 00:00:00.0000 TDB
Stop  time      : A.D. 2030-Jul-01 00:00:00.0000 TDB
Step-size       : 20160 minutes
*******************************************************************************
Center geodetic : 0.00000000,0.00000000,0.0000000 {E-lon(deg),Lat(deg),Alt(km)}
Center cylindric: 0.00000000,0.00000000,0.0000000 {E-lon(deg),Dxy(km),Dz(km)}
Center radii    : 696000.0 x 696000.0 x 696000.0 k{Equator, meridian, pole}    
Small perturbers: Yes                             {source: SB431-N16}
Output units    : AU-D
Output type     : GEOMETRIC cartesian states
Output format   : 3 (position, velocity, LT, range, range-rate)
Reference frame : Ecliptic of J2000.0
*******************************************************************************
Initial IAU76/J2000 heliocentric ecliptic osculating elements (au, days, deg.):
 EPOCH=  2458846.5 ! 2019-Dec-29.0000000 (TDB)    RMSW= n.a.                  
  EC= .6957830663174389   QR= .9119993527706466   TP= 2458830.9595339489      
  OM= 139.3826941535015   W= 2.266734985153481    IN= 24.63522474375647       
 Equivalent ICRF heliocentric equatorial cartesian coordinates (au, au/d):
  X=-8.817615844953135E-01  Y= 1.967237079315114E-01  Z= 2.638983001137243E-01
 VX=-8.453289483545987E-03 VY=-2.140080381734969E-02 VZ= 8.008793405870306E-04
Comet physical (GM= km^3/s^2; RAD= km):                                        
  GM= n.a.                RAD= n.a.                                           
  M1=  19.1     M2=  n.a.     k1=  4.5    k2= n.a.     PHCOF= n.a.            
*******************************************************************************
           JDTDB,            Calendar Date (TDB),                      X,                      Y,                      Z,                     VX,                     VY,                     VZ,                     LT,                     RG,                     RR,
**************************************************************************************************************************************************************************************************************************************************************************
$$SOE
2462132.500000000, A.D. 2028-Dec-27 00:00:00.0000,  4.066632095689658E+00, -1.242576498890009E+00, -7.821558426697683E-01, -2.483124514811187E-03,  5.589249987819406E-03, -1.196689325566984E-03,  2.497085991260695E-02,  4.323570367128245E+00, -3.725399522907805E-03,
2462146.500000000, A.D. 2029-Jan-10 00:00:00.0000,  4.030396174018961E+00, -1.163884921463894E+00, -7.986233454166153E-01, -2.694427776221686E-03,  5.652107325036868E-03, -1.155412574863604E-03,  2.466391178261110E-02,  4.270423945910068E+00, -3.867361799173026E-03,
2462160.500000000, A.D. 2029-Jan-24 00:00:00.0000,  3.991159435137145E+00, -1.084326137486638E+00, -8.144958353171144E-01, -2.911879640554791E-03,  5.713111910440800E-03, -1.111658055000276E-03,  2.434538224315820E-02,  4.215272265805599E+00, -4.011890703561653E-03,
2462174.500000000, A.D. 2029-Feb-07 00:00:00.0000,  3.948832854664635E+00, -1.003927208193518E+00, -8.297373399384105E-01, -3.135908629082326E-03,  5.772096522022406E-03, -1.065239119877809E-03,  2.401505720753578E-02,  4.158078258849651E+00, -4.159150939497426E-03,
2462188.500000000, A.D. 2029-Feb-21 00:00:00.0000,  3.903321139652833E+00, -9.227178166067316E-01, -8.443091359879812E-01, -3.366979082720155E-03,  5.828855530546122E-03, -1.015949089375330E-03,  2.367270902602947E-02,  4.098802508716046E+00, -4.309310912978525E-03,
2462202.500000000, A.D. 2029-Mar-07 00:00:00.0000,  3.854522238793866E+00, -8.407307349035770E-01, -8.581694441072903E-01, -3.605594363577744E-03,  5.883152980594101E-03, -9.635573478261588E-04,  2.331809623119479E-02,  4.037403206612811E+00, -4.462545550156061E-03,
2462216.500000000, A.D. 2029-Mar-21 00:00:00.0000,  3.802326719564032E+00, -7.580022861148734E-01, -8.712730660130961E-01, -3.852306756567155E-03,  5.934716108041890E-03, -9.078054679665286E-04,  2.295096277220519E-02,  3.973836018713632E+00, -4.619040833575714E-03,
2462230.500000000, A.D. 2029-Apr-04 00:00:00.0000,  3.746617040947246E+00, -6.745729260230514E-01, -8.835709683388427E-01, -4.107722677122352E-03,  5.983225498055178E-03, -8.484033621246349E-04,  2.257103712799089E-02,  3.908053932602624E+00, -4.778992678900556E-03,
2462244.500000000, A.D. 2029-Apr-18 00:00:00.0000,  3.687266799613508E+00, -5.904879366708722E-01, -8.950098090591595E-01, -4.372502612478639E-03,  6.028312816925581E-03, -7.850244621871083E-04,  2.217803176373851E-02,  3.840007163170139E+00, -4.942601487600140E-03,
2462258.500000000, A.D. 2029-May-02 00:00:00.0000,  3.624139821499257E+00, -5.057980813270193E-01, -9.055313695231828E-01, -4.647387916504369E-03,  6.069558057459115E-03, -7.172974551904872E-04,  2.177164214114687E-02,  3.769642981243886E+00, -5.110091110223179E-03,
2462272.500000000, A.D. 2029-May-16 00:00:00.0000,  3.557088935806324E+00, -4.205605925293272E-01, -9.150718916226149E-01, -4.933205137447684E-03,  6.106454394228365E-03, -6.448014629427811E-04,  2.135154486004030E-02,  3.696905391819241E+00, -5.281699618161800E-03,
2462286.500000000, A.D. 2029-May-30 00:00:00.0000,  3.485954818142988E+00, -3.348404249586219E-01, -9.235613300971280E-01, -5.230867199627296E-03,  6.138404265051259E-03, -5.670573680881548E-04,  2.091739706314723E-02,  3.621735030999861E+00, -5.457671581157800E-03,
2462300.500000000, A.D. 2029-Jun-13 00:00:00.0000,  3.410564645809481E+00, -2.487116315911267E-01, -9.309224598374672E-01, -5.541392232318273E-03,  6.164701381476435E-03, -4.835166742101882E-04,  2.046883566348377E-02,  3.544069032223288E+00, -5.638262872860406E-03,
2462314.500000000, A.D. 2029-Jun-27 00:00:00.0000,  3.330730515889504E+00, -1.622590715309185E-01, -9.370698192245676E-01, -5.865918723007569E-03,  6.184503119783893E-03, -3.935489688420870E-04,  2.000547648287544E-02,  3.463840877100620E+00, -5.823738469285997E-03,
2462328.500000000, A.D. 2029-Jul-11 00:00:00.0000,  3.246247683844567E+00, -7.558053758650111E-02, -9.419084621503154E-01, -6.205715446663616E-03,  6.196800451491547E-03, -2.964268632710906E-04,  1.952691387563893E-02,  3.380980330259029E+00, -6.014362092514336E-03,
2462342.500000000, A.D. 2029-Jul-25 00:00:00.0000,  3.156892590480098E+00,  1.121076317897137E-02, -9.453324594348396E-01, -6.562210068303222E-03,  6.200393235932044E-03, -1.913046760931383E-04,  1.903272093162535E-02,  3.295413474497597E+00, -6.210399647887411E-03,
2462356.500000000, A.D. 2029-Aug-08 00:00:00.0000,  3.062420358968759E+00,  9.798307403432670E-02, -9.472230797486801E-01, -6.937020367274975E-03,  6.193818610639454E-03, -7.719541749271418E-05,  1.852244899872690E-02,  3.207062628111919E+00, -6.412117292155595E-03,
2462370.500000000, A.D. 2029-Aug-22 00:00:00.0000,  2.962562109324127E+00,  1.845819680026781E-01, -9.474466240376013E-01, -7.331962210209416E-03,  6.175291570879407E-03,  4.705800334704241E-05,  1.799562899422607E-02,  3.115846571947182E+00, -6.619751784932968E-03,
2462384.500000000, A.D. 2029-Sep-05 00:00:00.0000,  2.857021950417484E+00,  2.708253441099424E-01, -9.458517810174640E-01, -7.749084384425518E-03,  6.142627473983347E-03,  1.828216458773451E-04,  1.745177431123030E-02,  3.021681052631714E+00, -6.833496587582651E-03,
2462398.500000000, A.D. 2029-Sep-19 00:00:00.0000,  2.745473477724285E+00,  3.564970797361166E-01, -9.422663787632732E-01, -8.190702706959698E-03,  6.093129120673534E-03,  3.317184921176210E-04,  1.689038532492412E-02,  2.924479562810366E+00, -7.053474318152111E-03,
2462412.500000000, A.D. 2029-Oct-03 00:00:00.0000,  2.627555817062537E+00,  4.413388545191073E-01, -9.364933801020344E-01, -8.659429661215755E-03,  6.023437580331437E-03,  4.956891370342632E-04,  1.631095687023531E-02,  2.824154635862270E+00, -7.279688962904305E-03,
2462426.500000000, A.D. 2029-Oct-17 00:00:00.0000,  2.502869271144324E+00,  5.250396487229929E-01, -9.283059048580686E-01, -9.158207617941075E-03,  5.929347947781024E-03,  6.770716787006517E-04,  1.571299056586590E-02,  2.720619979740655E+00, -7.511958102043857E-03,
2462440.500000000, A.D. 2029-Oct-31 00:00:00.0000,  2.370970334071863E+00,  6.072220820670962E-01, -9.174409699363827E-01, -9.690355442119911E-03,  5.805526895843545E-03,  8.787042824162183E-04,  1.509601277617200E-02,  2.613793586975940E+00, -7.749831723809010E-03,
2462454.500000000, A.D. 2029-Nov-14 00:00:00.0000,  2.231366445011442E+00,  6.874240373484137E-01, -9.035916250671090E-01, -1.025955936851157E-02,  5.645132808705617E-03,  1.104054840561967E-03,  1.445960255546331E-02,  2.503602573081201E+00, -7.992423179087649E-03,
2462468.500000000, A.D. 2029-Nov-28 00:00:00.0000,  2.083510986490075E+00,  7.650742098330614E-01, -8.863969812308583E-01, -1.086984728149651E-02,  5.439307339084168E-03,  1.357393553609281E-03,  1.380343587265524E-02,  2.389990833813324E+00, -8.238174698279036E-03,
2462482.500000000, A.D. 2029-Dec-12 00:00:00.0000,  1.926799081600422E+00,  8.394590373961441E-01, -8.654294876505970E-01, -1.152548701980033E-02,  5.176441666692145E-03,  1.644015140083702E-03,  1.312735344155676E-02,  2.272930789623271E+00, -8.484493383830224E-03,
